{"_default": { "9": {"norad_id": "43700", "name": "ES'HAIL 2", "tle1": "1 43700U 18090A   26161.55889796  .00000162  00000-0  00000-0 0  9994", "tle2": "2 43700   0.0124 297.5952 0001895 183.1386   5.2106  1.00273986 27611", "object_type": "PAYLOAD", "criticality_score": 9.0, "last_updated": "2026-06-11T12:15:23.970987+00:00", "maneuver_count": 0}, "10": {"norad_id": "43678", "name": "DIWATA 2B", "tle1": "1 43678U 18084H   26161.56771904  .00002230  00000-0  18240-3 0  9999", "tle2": "2 43678  98.1177 357.4891 0012150 191.7961 168.2978 15.00420507415222", "object_type": "PAYLOAD", "criticality_score": 9.0, "last_updated": "2026-06-11T12:15:23.970987+00:00", "maneuver_count": 0}, "11": {"norad_id": "43677", "name": "TEN-KOH", "tle1": "1 43677U 18084G   26161.59905754  .00002074  00000-0  15931-3 0  9993", "tle2": "2 43677  98.0782 353.6851 0010851 134.4130 225.7984 15.02916469415173", "object_type": "PAYLOAD", "criticality_score": 9.0, "last_updated": "2026-06-11T12:15:23.970987+00:00", "maneuver_count": 0}, "42": {"norad_id": "43681", "name": "AUTCUBE 2", "tle1": "1 43681U 18084K   26161.53778810  .00003052  00000-0  19183-3 0  9993", "tle2": "2 43681  98.0718   7.3602 0010286  69.3220 290.9109 15.10043728415926", "object_type": "PAYLOAD", "criticality_score": 9.0, "last_updated": "2026-06-11T12:15:23.970987+00:00", "maneuver_count": 0}, "43": {"norad_id": "43656", "name": "CZ-4B R/B", "tle1": "1 43656U 18081B   26161.61655662  .00000090  00000-0  44732-4 0  9998", "tle2": "2 43656  99.3683  79.0175 0203753 285.8000  72.0800 14.31863848398368", "object_type": "ROCKET_BODY", "criticality_score": 9.0, "last_updated": "2026-06-11T12:15:23.970987+00:00", "maneuver_count": 0}, "76": {"norad_id": "43186", "name": "S-NET D", "tle1": "1 43186U 18014G   26161.46833202  .00004592  00000-0  23824-3 0  9992", "tle2": "2 43186  97.5371  66.3009 0009549  50.7592 309.4487 15.16609598457747", "object_type": "PAYLOAD", "criticality_score": 9.0, "last_updated": "2026-06-11T12:15:23.970987+00:00", "maneuver_count": 0}, "77": {"norad_id": "43189", "name": "S-NET C", "tle1": "1 43189U 18014K   26161.48349659  .00004857  00000-0  25196-3 0  9993", "tle2": "2 43189  97.5403  66.5833 0011129  39.1939 321.0098 15.16570695456298", "object_type": "PAYLOAD", "criticality_score": 9.0, "last_updated": "2026-06-11T12:15:23.970987+00:00", "maneuver_count": 0}, "78": {"norad_id": "43187", "name": "S-NET B", "tle1": "1 43187U 18014H   26161.28171504  .00005113  00000-0  26504-3 0  9991", "tle2": "2 43187  97.5375  66.1017 0010042  46.5219 313.6848 15.16577938457715", "object_type": "PAYLOAD", "criticality_score": 9.0, "last_updated": "2026-06-11T12:15:23.970987+00:00", "maneuver_count": 0}, "79": {"norad_id": "43188", "name": "S-NET A", "tle1": "1 43188U 18014J   26161.46724519  .00004567  00000-0  23685-3 0  9991", "tle2": "2 43188  97.5386  66.4936 0009969  46.8834 313.3231 15.16617465457749", "object_type": "PAYLOAD", "criticality_score": 9.0, "last_updated": "2026-06-11T12:15:23.970987+00:00", "maneuver_count": 0}, "105": {"norad_id": "43689", "name": "METOP-C", "tle1": "1 43689U 18087A   26161.59240235  .00000073  00000-0  53071-4 0  9990", "tle2": "2 43689  98.6646 221.3163 0001526 136.8562 223.2735 14.21510315393893", "object_type": "PAYLOAD", "criticality_score": 9.0, "last_updated": "2026-06-11T12:15:23.970987+00:00", "maneuver_count": 0}, "106": {"norad_id": "43679", "name": "STARS-AO", "tle1": "1 43679U 18084J   26161.54351754  .00005662  00000-0  29050-3 0  9998", "tle2": "2 43679  98.0519  15.1061 0002461 151.8655 208.2710 15.16978610416466", "object_type": "PAYLOAD", "criticality_score": 9.0, "last_updated": "2026-06-11T12:15:23.970987+00:00", "maneuver_count": 0}, "137": {"norad_id": "43485", "name": "LUOJIA-1 01", "tle1": "1 43485U 18048B   26161.58094503  .00002684  00000-0  30350-3 0  9999", "tle2": "2 43485  97.8100 239.8750 0009935 136.1031 224.0976 14.87263891433230", "object_type": "PAYLOAD", "criticality_score": 9.0, "last_updated": "2026-06-11T12:15:23.970987+00:00", "maneuver_count": 0}, "194": {"norad_id": "43159", "name": "JILIN-01-07", "tle1": "1 43159U 18008E   26161.57266513  .00007864  00000-0  23639-3 0  9991", "tle2": "2 43159  97.1776 181.6779 0010191  84.6281 275.6125 15.34611502463987", "object_type": "PAYLOAD", "criticality_score": 9.0, "last_updated": "2026-06-11T12:15:23.970987+00:00", "maneuver_count": 0}, "195": {"norad_id": "43160", "name": "JILIN-01-08", "tle1": "1 43160U 18008F   26161.63386035  .00006137  00000-0  19090-3 0  9990", "tle2": "2 43160  97.1808 181.0607 0008074  97.7914 262.4246 15.33636152463945", "object_type": "PAYLOAD", "criticality_score": 9.0, "last_updated": "2026-06-11T12:15:23.970987+00:00", "maneuver_count": 0}, "226": {"norad_id": "43441", "name": "ZHUHAI-1 OHS-02", "tle1": "1 43441U 18040C   26161.59295907  .00006795  00000-0  26840-3 0  9991", "tle2": "2 43441  97.0378 186.1468 0007462 247.9950 112.0497 15.25785546113277", "object_type": "PAYLOAD", "criticality_score": 9.0, "last_updated": "2026-06-11T12:15:23.970987+00:00", "maneuver_count": 0}, "233": {"norad_id": "43440", "name": "ZHUHAI-1 OVS-02", "tle1": "1 43440U 18040B   26161.60420102  .00006729  00000-0  27281-3 0  9996", "tle2": "2 43440  97.0393 179.2244 0001493 289.8878  70.2200 15.24936492451718", "object_type": "PAYLOAD", "criticality_score": 9.0, "last_updated": "2026-06-11T12:15:23.970987+00:00", "maneuver_count": 0}, "291": {"norad_id": "43618", "name": "SSTL S1-4", "tle1": "1 43618U 18071A   26160.66475553  .00001526  00000-0  14025-3 0  9994", "tle2": "2 43618  97.5039  32.5916 0001483 104.7724 255.3662 14.96187686421815", "object_type": "PAYLOAD", "criticality_score": 9.0, "last_updated": "2026-06-11T12:15:23.970987+00:00", "maneuver_count": 0}, "292": {"norad_id": "43717", "name": "MOHAMMED VI-B", "tle1": "1 43717U 18095A   26161.60602718  .00000333  00000-0  54386-4 0  9990", "tle2": "2 43717  97.9555 234.0219 0001222  91.8059 268.3291 14.77108602407215", "object_type": "PAYLOAD", "criticality_score": 9.0, "last_updated": "2026-06-11T12:15:23.970987+00:00", "maneuver_count": 0}, "305": {"norad_id": "43226", "name": "GOES 17", "tle1": "1 43226U 18022A   26161.53607558 -.00000165  00000-0  00000-0 0  9998", "tle2": "2 43226   0.9194  85.8321 0000524  20.0838 256.4799  1.00271146 30356", "object_type": "PAYLOAD", "criticality_score": 9.0, "last_updated": "2026-06-11T12:15:23.970987+00:00", "maneuver_count": 0}, "421": {"norad_id": "43719", "name": "HYSIS", "tle1": "1 43719U 18096A   26161.57988580  .00000861  00000-0  12452-3 0  9996", "tle2": "2 43719  97.9840 228.3798 0001747 109.7947 250.3453 14.78682610406441", "object_type": "PAYLOAD", "criticality_score": 9.0, "last_updated": "2026-06-11T12:15:23.970987+00:00", "maneuver_count": 0}, "422": {"norad_id": "43662", "name": "CFOSAT", "tle1": "1 43662U 18083A   26161.62681414  .00003200  00000-0  16839-3 0  9994", "tle2": "2 43662  97.3605 166.3511 0002434  95.2666 264.8845 15.16333837421445", "object_type": "PAYLOAD", "criticality_score": 9.0, "last_updated": "2026-06-11T12:15:23.970987+00:00", "maneuver_count": 0}, "440": {"norad_id": "43609", "name": "HAIYANG 1C", "tle1": "1 43609U 18068A   26161.61721900  .00000169  00000-0  75823-4 0  9992", "tle2": "2 43609  98.5189 234.0203 0011996 111.7041 248.5422 14.34177362406149", "object_type": "PAYLOAD", "criticality_score": 9.0, "last_updated": "2026-06-11T12:15:23.970987+00:00", "maneuver_count": 0}, "480": {"norad_id": "43529", "name": "PAKTES 1A", "tle1": "1 43529U 18056A   26161.59687906  .00002969  00000-0  24867-3 0  9995", "tle2": "2 43529  98.1303 317.8024 0022439 126.9261 233.4020 14.99080557430932", "object_type": "PAYLOAD", "criticality_score": 9.0, "last_updated": "2026-06-11T12:15:23.970987+00:00", "maneuver_count": 0}, "482": {"norad_id": "43530", "name": "PRSS 1", "tle1": "1 43530U 18056B   26161.64057588  .00000792  00000-0  10631-3 0  9996", "tle2": "2 43530  97.7820 229.6918 0001764  76.4689 283.6721 14.81979736427462", "object_type": "PAYLOAD", "criticality_score": 9.0, "last_updated": "2026-06-11T12:15:23.970987+00:00", "maneuver_count": 0}, "532": {"norad_id": "43236", "name": "LKW-4", "tle1": "1 43236U 18025A   26161.03240013  .00041263  00000-0  47824-3 0  9997", "tle2": "2 43236  97.6341 331.3489 0001856 330.8471  29.2682 15.61709341458910", "object_type": "PAYLOAD", "criticality_score": 9.0, "last_updated": "2026-06-11T12:15:23.970987+00:00", "maneuver_count": 0}, "535": {"norad_id": "43655", "name": "HAIYANG 2B", "tle1": "1 43655U 18081A   26161.92467154  .00000017  00000-0  59240-4 0  9997", "tle2": "2 43655  99.3292 170.7764 0000572  14.6715 345.4453 13.79306211384061", "object_type": "PAYLOAD", "criticality_score": 9.0, "last_updated": "2026-06-11T12:15:23.970987+00:00", "maneuver_count": 0}, "608": {"norad_id": "43751", "name": "COSMOS 2530", "tle1": "1 43751U 18097A   26161.61495961 -.00000042  00000-0 -37370-3 0  9993", "tle2": "2 43751  82.5144 226.3590 0020411  53.4882 306.8074 12.42880873341471", "object_type": "PAYLOAD", "criticality_score": 9.0, "last_updated": "2026-06-11T12:15:23.970987+00:00", "maneuver_count": 0}, "641": {"norad_id": "43215", "name": "PAZ", "tle1": "1 43215U 18020A   26161.58605260  .00001676  00000-0  83002-4 0  9991", "tle2": "2 43215  97.4447 169.0657 0001701  87.7715 272.3714 15.19149620460004", "object_type": "PAYLOAD", "criticality_score": 9.0, "last_updated": "2026-06-11T12:15:23.970987+00:00", "maneuver_count": 0}}}