OBJECT_NAME,OBJECT_ID,EPOCH,MEAN_MOTION,ECCENTRICITY,INCLINATION,RA_OF_ASC_NODE,ARG_OF_PERICENTER,MEAN_ANOMALY,EPHEMERIS_TYPE,CLASSIFICATION_TYPE,NORAD_CAT_ID,ELEMENT_SET_NO,REV_AT_EPOCH,BSTAR,MEAN_MOTION_DOT,MEAN_MOTION_DDOT
JILIN-1 07,2018-008E,2026-06-10T13:44:38.267232,15.34611502,.00101914,97.1776,181.6779,84.6281,275.6125,0,U,43159,999,46398,.23639378E-3,.7864E-4,0
JILIN-1 08,2018-008F,2026-06-10T15:12:45.534240,15.33636152,.00080738,97.1808,181.0607,97.7914,262.4246,0,U,43160,999,46394,.19089868E-3,.6137E-4,0
S-NET D,2018-014G,2026-06-10T11:14:23.886528,15.16609598,.00095491,97.5371,66.3009,50.7592,309.4487,0,U,43186,999,45774,.23824019E-3,.4592E-4,0
S-NET B,2018-014H,2026-06-10T06:45:40.179456,15.16577938,.00100424,97.5375,66.1017,46.5219,313.6848,0,U,43187,999,45771,.2650402E-3,.5113E-4,0
S-NET A,2018-014J,2026-06-10T11:12:49.984416,15.16617465,.00099686,97.5386,66.4936,46.8834,313.3231,0,U,43188,999,45774,.23685188E-3,.4567E-4,0
S-NET C,2018-014K,2026-06-10T11:36:14.105376,15.16570695,.0011129,97.5403,66.5833,39.1939,321.0098,0,U,43189,999,45629,.25196294E-3,.4857E-4,0
PAZ,2018-020A,2026-06-10T14:03:54.944640,15.19149620,.00017011,97.4447,169.0657,87.7715,272.3714,0,U,43215,999,46000,.83001714E-4,.1676E-4,0
GOES 17,2018-022A,2026-06-10T12:51:56.930112,1.00271146,.00005236,0.9194,85.8321,20.0838,256.4799,0,U,43226,999,3035,0,-.165E-5,0
LKW-4,2018-025A,2026-06-10T00:46:39.371232,15.61709341,.00018564,97.6341,331.3489,330.8471,29.2682,0,U,43236,999,45891,.47824431E-3,.41263E-3,0
ZHUHAI-1 OVS-02,2018-040B,2026-06-10T14:30:02.968128,15.24936492,.00014929,97.0393,179.2244,289.8878,70.2200,0,U,43440,999,45171,.2728074E-3,.6729E-4,0
ZHUHAI-1 OHS-02,2018-040C,2026-06-10T14:13:51.663648,15.25785546,.00074617,97.0378,186.1468,247.9950,112.0497,0,U,43441,999,11327,.26840176E-3,.6795E-4,0
LUOJIA-1 01,2018-048B,2026-06-10T13:56:33.650592,14.87263891,.0009935,97.8100,239.8750,136.1031,224.0976,0,U,43485,999,43323,.30349891E-3,.2684E-4,0
PAKTES 1A,2018-056A,2026-06-10T14:19:30.350784,14.99080557,.00224388,98.1303,317.8024,126.9261,233.4020,0,U,43529,999,43093,.24867415E-3,.2969E-4,0
PRSS-1,2018-056B,2026-06-10T15:22:25.756032,14.81979736,.0001764,97.7820,229.6918,76.4689,283.6721,0,U,43530,999,42746,.10631085E-3,.792E-5,0
HAIYANG-1C,2018-068A,2026-06-10T14:48:47.721600,14.34177362,.00119957,98.5189,234.0203,111.7041,248.5422,0,U,43609,999,40614,.75823019E-4,.169E-5,0
SSTL S1-4,2018-071A,2026-06-09T15:57:14.877792,14.96187686,.00014828,97.5039,32.5916,104.7724,255.3662,0,U,43618,999,42181,.140246E-3,.1526E-4,0
HAIYANG-2B,2018-081A,2026-06-10T22:11:31.621056,13.79306211,.0000572,99.3292,170.7764,14.6715,345.4453,0,U,43655,999,38406,.5924E-4,.17E-6,0
CZ-4B R/B,2018-081B,2026-06-10T14:47:50.491968,14.31863848,.02037534,99.3683,79.0175,285.8000,72.0800,0,U,43656,999,39836,.44732317E-4,.9E-6,0
CFOSAT,2018-083A,2026-06-10T15:02:36.741696,15.16333837,.00024341,97.3605,166.3511,95.2666,264.8845,0,U,43662,999,42144,.16839246E-3,.32E-4,0
TEN-KOH,2018-084G,2026-06-10T14:22:38.571456,15.02916469,.00108512,98.0782,353.6851,134.4130,225.7984,0,U,43677,999,41517,.15931162E-3,.2074E-4,0
DIWATA-2B,2018-084H,2026-06-10T13:37:30.925056,15.00420507,.00121501,98.1177,357.4891,191.7961,168.2978,0,U,43678,999,41522,.18239583E-3,.223E-4,0
STARS-AO,2018-084J,2026-06-10T13:02:39.915456,15.16978610,.00024606,98.0519,15.1061,151.8655,208.2710,0,U,43679,999,41646,.29049976E-3,.5662E-4,0
AUTCUBE 2,2018-084K,2026-06-10T12:54:24.891840,15.10043728,.00102859,98.0718,7.3602,69.3220,290.9109,0,U,43681,999,41592,.1918348E-3,.3052E-4,0
METOP-C,2018-087A,2026-06-10T14:13:03.563040,14.21510315,.00015256,98.6646,221.3163,136.8562,223.2735,0,U,43689,999,39389,.53071375E-4,.73E-6,0
ES'HAIL 2,2018-090A,2026-06-10T13:24:48.783744,1.00273986,.00018948,0.0124,297.5952,183.1386,5.2106,0,U,43700,999,2761,0,.162E-5,0
MOHAMMED VI-B,2018-095A,2026-06-10T14:32:40.748352,14.77108602,.00012215,97.9555,234.0219,91.8059,268.3291,0,U,43717,999,40721,.54386005E-4,.333E-5,0
HYSIS,2018-096A,2026-06-10T13:55:02.133120,14.78682610,.00017465,97.9840,228.3798,109.7947,250.3453,0,U,43719,999,40644,.12452183E-3,.861E-5,0
COSMOS 2530 (RODNIK-S 16),2018-097A,2026-06-10T14:45:32.510304,12.42880873,.00204108,82.5144,226.3590,53.4882,306.8074,0,U,43751,999,34147,-.37369594E-3,-.42E-6,0
